STARLINK-4453           
1 53497U 22099AJ  22241.66667824 -.01233015  00000+0 -13595-1 0  9996
2 53497  97.6557   0.4694 0001881  54.5131  30.6831 15.65771845  2898
STARLINK-4439           
1 53498U 22099AK  22241.66667824 -.01227513  00000+0 -13542-1 0  9995
2 53498  97.6558   0.4692 0001795  56.2579  27.0181 15.65746288  2887
STARLINK-4454           
1 53499U 22099AL  22241.66667824 -.01229601  00000+0 -13551-1 0  9996
2 53499  97.6558   0.4697 0001818  55.9435  29.8945 15.65776505  2889
STARLINK-4455           
1 53500U 22099AM  22241.66667824 -.01224617  00000+0 -13500-1 0  9995
2 53500  97.6559   0.4692 0001785  58.6420  25.9166 15.65758429  2893
STARLINK-4434           
1 53501U 22099AN  22241.66667824 -.01238139  00000+0 -13640-1 0  9995
2 53501  97.6558   0.4700 0001868  54.4262  33.3300 15.65804423  2881
STARLINK-4435           
1 53502U 22099AP  22241.66667824 -.01231526  00000+0 -13570-1 0  9991
2 53502  97.6557   0.4695 0001783  62.8149  23.6627 15.65785227  2881
STARLINK-4461           
1 53503U 22099AQ  22241.66667824 -.01236877  00000+0 -13622-1 0  9994
2 53503  97.6557   0.4698 0001701  68.6265  19.7703 15.65810740  2888
STARLINK-4448           
1 53504U 22099AR  22241.66667824 -.01226594  00000+0 -13508-1 0  9993
2 53504  97.6558   0.4694 0001748  61.4727  25.6473 15.65788636  2889
